ZSPD 121700Z VRB01MPS 6000 NSC 16/13 Q1014 NOSIG 
ZSPD 121630Z 19002MPS 6000 NSC 16/13 Q1014 NOSIG 
ZSPD 121600Z 17001MPS 6000 NSC 16/13 Q1014 NOSIG 
ZSPD 121530Z 17002MPS 6000 NSC 16/13 Q1015 NOSIG 
ZSPD 121500Z 17003MPS 6000 NSC 15/13 Q1015 NOSIG 
ZSPD 121430Z 16003MPS 6000 NSC 16/13 Q1015 NOSIG 
ZSPD 121400Z 15002MPS 6000 NSC 17/13 Q1015 NOSIG 
ZSPD 121330Z 14002MPS 7000 NSC 17/14 Q1015 NOSIG 
ZSPD 121300Z 14002MPS 090V170 7000 NSC 18/14 Q1015 NOSIG 
ZSPD 121230Z 16002MPS 7000 NSC 18/14 Q1015 NOSIG 
ZSPD 121200Z 17003MPS 7000 NSC 18/14 Q1015 NOSIG 
ZSPD 121130Z 15003MPS 8000 NSC 18/13 Q1014 NOSIG 
ZSPD 121100Z 15003MPS 8000 BKN040 18/12 Q1014 NOSIG 
ZSPD 121030Z 14003MPS 8000 BKN040 19/12 Q1014 NOSIG 
ZSPD 121000Z 14004MPS 8000 BKN033 20/12 Q1014 NOSIG 
ZSPD 120930Z 13004MPS 110V180 8000 BKN033 20/13 Q1014 NOSIG 
ZSPD 120900Z 13005MPS 8000 BKN033 20/13 Q1014 NOSIG 
ZSPD 120830Z 13005MPS 8000 BKN033 21/13 Q1014 NOSIG 
ZSPD 120800Z 11005MPS 8000 BKN033 21/12 Q1014 NOSIG 
ZSPD 120730Z 08005MPS 060V120 8000 NSC 22/11 Q1014 NOSIG 
ZSPD 120700Z 09004MPS 8000 NSC 22/11 Q1014 NOSIG 
ZSPD 120630Z 09004MPS 7000 NSC 22/11 Q1014 NOSIG 
ZSPD 120600Z 07004MPS 050V110 7000 NSC 22/12 Q1015 NOSIG 
ZSPD 120530Z 09004MPS 7000 NSC 22/12 Q1015 NOSIG 
ZSPD 120500Z 08004MPS 7000 NSC 22/12 Q1015 NOSIG 
ZSPD 120430Z VRB03MPS 7000 NSC 22/12 Q1016 NOSIG 
ZSPD 120400Z VRB02MPS 7000 NSC 22/10 Q1016 NOSIG 
ZSPD 120330Z VRB01MPS 7000 NSC 22/10 Q1017 NOSIG 
ZSPD 120300Z VRB01MPS 8000 NSC 21/11 Q1017 NOSIG 
ZSPD 120230Z 28002MPS 220V350 8000 NSC 21/09 Q1017 NOSIG 
ZSPD 120200Z 24002MPS 190V300 7000 NSC 20/11 Q1017 NOSIG 
ZSPD 120130Z 24002MPS 200V280 7000 NSC 20/11 Q1017 NOSIG 
ZSPD 120100Z 25002MPS 210V280 6000 NSC 20/11 Q1017 NOSIG 
ZSPD 120030Z 25003MPS 6000 NSC 19/11 Q1017 NOSIG 
ZSPD 120000Z 25003MPS 6000 NSC 19/12 Q1017 NOSIG 
ZSPD 112330Z 22002MPS 190V250 6000 NSC 18/13 Q1017 NOSIG 
ZSPD 112300Z 21002MPS 180V250 6000 NSC 18/13 Q1017 NOSIG 
ZSPD 112230Z 22002MPS 5000 BR NSC 17/13 Q1017 NOSIG 
ZSPD 112200Z 20002MPS 4000 BR NSC 17/14 Q1017 NOSIG 
ZSPD 112130Z 19001MPS 4000 BR NSC 16/14 Q1016 NOSIG 
ZSPD 112100Z 19001MPS 5000 BR NSC 16/14 Q1016 NOSIG 
ZSPD 112030Z 19001MPS 5000 BR NSC 16/14 Q1016 NOSIG 
ZSPD 112000Z 17002MPS 6000 NSC 16/14 Q1016 NOSIG 
ZSPD 111930Z 18001MPS 7000 NSC 16/13 Q1016 NOSIG 
ZSPD 111900Z 21001MPS 7000 NSC 16/13 Q1016 NOSIG 
ZSPD 111830Z 19001MPS 8000 NSC 16/13 Q1016 NOSIG 
ZSPD 111800Z 15002MPS 8000 NSC 16/13 Q1016 NOSIG 
ZSPD 111730Z 16002MPS CAVOK 16/13 Q1017 NOSIG 
ZSPD 111700Z 17002MPS CAVOK 17/13 Q1017 NOSIG 
ZSPD 111630Z 13002MPS 100V160 CAVOK 17/12 Q1017 NOSIG 
ZSPD 111600Z VRB01MPS CAVOK 17/13 Q1017 NOSIG 
ZSPD 111530Z 17002MPS CAVOK 17/12 Q1018 NOSIG 
ZSPD 111500Z 21003MPS CAVOK 17/12 Q1018 NOSIG 
ZSPD 111430Z 13002MPS 080V180 CAVOK 18/12 Q1018 NOSIG 
ZSPD 111400Z 12002MPS CAVOK 17/12 Q1018 NOSIG 
ZSPD 111330Z 15002MPS 120V180 CAVOK 17/12 Q1018 NOSIG 